ARSAT 1                 
1 40272U 14062B   24210.18623435 -.00000262  00000+0  00000+0 0  9998
2 40272   0.0547 277.5916 0001560 213.9362 170.0317  1.00271846 35981
EXPRESS-AM6             
1 40277U 14064A   24209.88172120  .00000096  00000+0  00000+0 0  9994
2 40277   0.0162  71.6529 0000978 112.3488 132.4472  1.00271728 34662
GSAT-16                 
1 40332U 14078A   24210.16837748  .00000083  00000+0  00000+0 0  9994
2 40332   0.0266 100.2074 0007149 358.4328 323.3482  1.00270976 35359
DIRECTV 14              
1 40333U 14078B   24208.50280675 -.00000127  00000+0  00000+0 0  9991
2 40333   0.0201 320.3971 0000168  78.6169 347.4347  1.00270205 35136
YAMAL 401               
1 40345U 14082A   24208.82080866 -.00000231  00000+0  00000+0 0  9990
2 40345   0.0146  67.5481 0000453 184.7477  78.1329  1.00272478 34996
ASTRA 2G                
1 40364U 14089A   24210.16298207  .00000147  00000+0  00000+0 0  9993
2 40364   0.0420   1.2929 0003947  84.2832 307.5704  1.00273038 35118
FENGYUN 2G              
1 40367U 14090A   24209.96255003 -.00000307  00000+0  00000+0 0  9990
2 40367   3.8921  81.0767 0003069 139.6656 171.4457  1.00274108 35121
MUOS-3                  
1 40374U 15002A   24209.93209044 -.00000132  00000+0  00000+0 0  9999
2 40374   3.3010  36.0181 0057489 175.8474  54.2880  1.00272152 34672
INMARSAT 5-F2           
1 40384U 15005A   24209.36021894 -.00000287  00000+0  00000+0 0  9996
2 40384   0.0197  74.6245 0000439 139.6876 165.8662  1.00271438 34762
ABS-3A                  
1 40424U 15010A   24209.33799326 -.00000029  00000+0  00000+0 0  9990
2 40424   0.0168  54.0611 0001718 341.9371  28.1907  1.00268823 34456
EUTELSAT 115 WEST B     
1 40425U 15010B   24206.45605003 -.00000027  00000+0  00000+0 0  9997
2 40425   0.0129 245.3979 0000240 243.1963 223.3343  1.00273893 34484
EXPRESS-AM7             
1 40505U 15012A   24210.16533168  .00000148  00000+0  00000+0 0  9996
2 40505   0.0157  64.0233 0002644  63.5397 278.2522  1.00269057 34450
IRNSS-1D                
1 40547U 15018A   24209.53577243 -.00000268  00000+0  00000+0 0  9993
2 40547  27.4073 252.0081 0021625 195.6942 162.8190  1.00269965 34063
BEIDOU-3S IGSO-1S       
1 40549U 15019A   24209.73443337 -.00000186  00000+0  00000+0 0  9993
2 40549  50.4956 303.7146 0036309 194.5878 165.3051  1.00296325 34152
THOR 7                  
1 40613U 15022A   24206.27444388 -.00000010  00000+0  00000+0 0  9998
2 40613   0.0136 105.8835 0002717  20.0885 274.6523  1.00269263 33864
TURKMENALEM52E/MONACOSAT
1 40617U 15023A   24210.16742024  .00000102  00000+0  00000+0 0  9995
2 40617   0.0126  96.0262 0002101  41.5599 280.9980  1.00269717 33927
DIRECTV 15              
1 40663U 15026A   24209.85080691 -.00000105  00000+0  00000+0 0  9992
2 40663   0.0162  60.9469 0001352 161.3537 287.1438  1.00272494 33627
SKY MEXICO-1            
1 40664U 15026B   24206.71924014 -.00000236  00000+0  00000+0 0  9996
2 40664   0.0133  68.5826 0002122  65.4979 348.9942  1.00269760 33513
METEOSAT-11 (MSG-4)     
1 40732U 15034A   24209.87301896  .00000060  00000+0  00000+0 0  9992
2 40732   1.4810  69.9356 0001444 160.4382  39.2148  1.00275508   316
STAR ONE C4             
1 40733U 15034B   24208.49777903 -.00000266  00000+0  00000+0 0  9995
2 40733   0.0297 336.5043 0001214 146.0802 291.2646  1.00268812 33093
WGS F7 (USA 263)        
1 40746U 15036A   24208.90428944  .00000015  00000+0  00000+0 0  9996
2 40746   0.0143  34.6272 0000245  78.4616 332.5164  1.00271775 32940
INTELSAT 34 (IS-34)     
1 40874U 15039A   24207.78519043 -.00000287  00000+0  00000+0 0  9999
2 40874   0.0252 355.1157 0001087  17.1600 158.8492  1.00268491 32690
EUTELSAT 8 WEST B       
1 40875U 15039B   24209.87341090 -.00000068  00000+0  00000+0 0  9994
2 40875   0.0645 355.7499 0003487 126.8681 129.8450  1.00271143 32730
GSAT-6                  
1 40880U 15041A   24209.89910646 -.00000163  00000+0  00000+0 0  9990
2 40880   0.1302  96.4748 0002989  37.0799 218.6768  1.00272778 32680
INMARSAT 5-F3           
1 40882U 15042A   24209.22827132  .00000048  00000+0  00000+0 0  9998
2 40882   0.0184  75.1897 0000128   4.7529 127.2208  1.00272329 32645
MUOS-4                  
1 40887U 15044A   24210.17246753 -.00000096  00000+0  00000+0 0  9999
2 40887   3.1606  33.0958 0054983   2.9363  47.3852  1.00270857 32649
TJS-1                   
1 40892U 15046A   24210.00743727 -.00000158  00000+0  00000+0 0  9991
2 40892   0.0524 228.5075 0001371 148.4020  86.8663  1.00273524 32642
EXPRESS-AM8             
1 40895U 15048A   24210.15462789 -.00000114  00000+0  00000+0 0  9990
2 40895   0.0134 346.6722 0000220   8.1093 353.1823  1.00273617 32468
BEIDOU-3S IGSO-2S       
1 40938U 15053A   24209.90291953 -.00000105  00000+0  00000+0 0  9998
2 40938  50.2923 266.9289 0053867 191.5874 265.6320  1.00253233 32449
SKY MUSTER 1 (NBN1A)    
1 40940U 15054A   24207.60940252 -.00000281  00000+0  00000+0 0  9995
2 40940   0.0156  64.8807 0001808  63.3410 175.1982  1.00267750 32329
ARSAT 2                 
1 40941U 15054B   24209.20466061 -.00000227  00000+0  00000+0 0  9995
2 40941   0.0510 277.0610 0001971 201.9993 178.9678  1.00271881 32380
MORELOS 3               
1 40946U 15056A   24209.70565323 -.00000043  00000+0  00000+0 0  9994
2 40946   3.0085 353.4634 0002307 185.5884 267.7345  1.00271962 32377
APSTAR-9                
1 40982U 15059A   24209.88382934 -.00000268  00000+0  00000+0 0  9990
2 40982   0.0317 274.9920 0002983 272.5563 218.6626  1.00272521 32209
TURKSAT 4B              
1 40984U 15060A   24210.16733321  .00000113  00000+0  00000+0 0  9995
2 40984   0.0470  88.4378 0003942  22.7213 305.3354  1.00271103 32183
ZHONGXING-2C            
1 41021U 15063A   24210.10642258 -.00000326  00000+0  00000+0 0  9990
2 41021   0.0235 131.3011 0003819 341.2302 335.4172  1.00274569 32101
GSAT-15                 
1 41028U 15065A   24210.10442108 -.00000260  00000+0  00000+0 0  9998
2 41028   0.0681 269.7107 0003407 191.5216 336.1057  1.00269641 31955
BADR-7 (ARABSAT-6B)     
1 41029U 15065B   24210.07896719  .00000142  00000+0  00000+0 0  9994
2 41029   0.0396 229.4667 0004994 341.8636 149.2968  1.00272666 32003
LAOSAT 1                
1 41034U 15067A   24210.21434399 -.00000346  00000+0  00000+0 0  9997
2 41034   0.0051 216.6230 0002298 220.1622  75.2023  1.00268120 31931
TELSTAR 12V             
1 41036U 15068A   24210.03382794 -.00000121  00000+0  00000+0 0  9992
2 41036   0.0136  62.5762 0002180  65.8387 174.9310  1.00270899 31816
ELEKTRO-L 2             
1 41105U 15074A   24209.86835451 -.00000122  00000+0  00000+0 0  9999
2 41105   4.9428  78.9884 0001642 148.7401  16.3958  1.00272085 31597
COSMOS 2513             
1 41121U 15075A   24207.74063483 -.00000140  00000+0  00000+0 0  9991
2 41121   0.0562 109.3927 0002304 341.5506 199.8440  1.00271374 31608
EXPRESS-AMU1            
1 41191U 15082A   24210.16454848  .00000153  00000+0  00000+0 0  9998
2 41191   0.0138  82.5702 0002394  51.1454 267.8987  1.00271810 31609
GAOFEN-4                
1 41194U 15083A   24209.89225095 -.00000336  00000+0  00000+0 0  9994
2 41194   0.0397 231.7147 0000816 227.3867 273.8039  1.00267268 31610
BELINTERSAT-1           
1 41238U 16001A   24209.88146014  .00000104  00000+0  00000+0 0  9998
2 41238   0.0186  89.1310 0000927 336.0313 249.7063  1.00273305 31325
IRNSS-1E                
1 41241U 16003A   24209.71245628 -.00000316  00000+0  00000+0 0  9993
2 41241  31.7210  72.8729 0018679 177.3357  63.9329  1.00270546 31288
EUTELSAT 9B             
1 41310U 16005A   24206.36700108  .00000061  00000+0  00000+0 0  9995
2 41310   0.0158  30.9873 0001915 134.1997 278.5123  1.00275371 31171
SES-9                   
1 41380U 16013A   24209.32033312 -.00000347  00000+0  00000+0 0  9994
2 41380   0.0471 268.5961 0002124 195.7124  64.7798  1.00271001 30528
EUTELSAT 65 WEST A      
1 41382U 16014A   24210.14444625 -.00000278  00000+0  00000+0 0  9995
2 41382   0.0638 320.7199 0002030 170.3380 162.0226  1.00269754 30731
IRNSS-1F                
1 41384U 16015A   24209.92799772  .00000154  00000+0  00000+0 0  9990
2 41384   3.6633 116.3059 0018311 178.9766  17.3298  1.00267748 30756
BEIDOU-2 IGSO-6         
1 41434U 16021A   24209.51234698 -.00000152  00000+0  00000+0 0  9998
2 41434  59.2366  44.9375 0048161 221.2190 318.4606  1.00263028 30562
IRNSS-1G                
1 41469U 16027A   24209.75953517 -.00000339  00000+0  00000+0 0  9993
2 41469   3.5319 117.5076 0005574 343.0761 248.1987  1.00278083 30268
JCSAT-2B                
1 41471U 16028A   24210.01299181 -.00000167  00000+0  00000+0 0  9997
2 41471   0.0201  76.7155 0000737  54.7311 333.3874  1.00272706 30178
THAICOM 8               
1 41552U 16031A   24210.17298969 -.00000124  00000+0  00000+0 0  9994
2 41552   0.0757  55.3017 0001908  47.1181 344.6941  1.00272820 29878
INTELSAT 31 (IS-31)     
1 41581U 16035A   24206.66666667 -.00000152  00000+0  00000+0 0  9994
2 41581   0.0125 112.5670 0001017  57.5664 277.6834  1.00270428 29746
BEIDOU-2 G7             
1 41586U 16037A   24210.14506513 -.00000357  00000+0  00000+0 0  9999
2 41586   2.0033  70.0841 0007922   7.7516  31.1495  1.00266480 29876
ABS-2A (MONGOLSAT-1)    
1 41588U 16038A   24209.26229976 -.00000086  00000+0  00000+0 0  9997
2 41588   0.0064  38.5887 0001471  44.1267  31.8398  1.00269291 29793
EUTELSAT 117 WEST B     
1 41589U 16038B   24209.41299403 -.00000014  00000+0  00000+0 0  9998
2 41589   0.0043 116.2383 0000037 238.1478 342.8747  1.00272944 29750
BRISAT                  
1 41591U 16039A   24208.68799456 -.00000199  00000+0  00000+0 0  9997
2 41591   0.0125  54.4834 0002041  66.0040 222.5477  1.00270099 29683
ECHOSTAR 18             
1 41592U 16039B   24209.02202796 -.00000284  00000+0  00000+0 0  9998
2 41592   0.0211  69.2209 0001642  64.5206 118.0149  1.00268204 29694
